AMAZONAS 5              
1 42934U 17053A   19132.93489356 -.00000295  00000-0  00000-0 0  9998
2 42934   0.0298 314.1821 0004396  73.0740 118.7246  1.00271933  6108
ASIASAT 9               
1 42942U 17057A   19133.30674352 -.00000373  00000-0  00000+0 0  9991
2 42942   0.0057  24.7061 0002580  15.4212  63.1881  1.00272567  5951
INTELSAT 37E (IS-37E)   
1 42950U 17059A   19133.41479286 -.00000154  00000-0  00000+0 0  9990
2 42950   0.0002   1.8346 0002572  50.1706 310.1979  1.00271460  6064
BSAT-4A                 
1 42951U 17059B   19133.56041087 -.00000364  00000-0  00000+0 0  9994
2 42951   0.0668  63.9719 0004535 350.3708 128.2835  1.00272155  5963
QZS-4 (MICHIBIKI-4)     
1 42965U 17062A   19132.82680157 -.00000325  00000-0  00000+0 0  9995
2 42965  40.7396  16.9176 0748090 270.9453  18.8010  1.00271210  5822
SES-11 (ECHOSTAR 105)   
1 42967U 17063A   19132.89498049 -.00000102  00000-0  00000-0 0  9996
2 42967   0.0120 268.8837 0002350 139.0075  39.7308  1.00269555  5817
KOREASAT 5A             
1 42984U 17067A   19133.01021913 -.00000371  00000-0  00000+0 0  9993
2 42984   0.0392 107.2263 0001941 314.4095 285.6874  1.00271872  5637
ALCOMSAT 1              
1 43039U 17078A   19133.45535375 -.00000200  00000-0  00000+0 0  9998
2 43039   0.0132   8.8535 0003158  56.9124 304.2875  1.00272171  5308
SBIRS GEO-4 (USA 282)   
1 43162U 18009A   19133.06756039 -.00000313  00000-0  00000+0 0  9994
2 43162   5.7048 318.4631 0002357  83.4888 351.9080  1.00270976  4848
AL YAH 3                
1 43174U 18012A   19133.40327057 -.00000169  00000-0  00000+0 0  9992
2 43174   0.0126 284.8443 0002028 121.2194 309.8808  1.00270114  4865
SES-14                  
1 43175U 18012B   19132.86814407 -.00000291  00000-0  00000-0 0  9999
2 43175   0.0140 298.7379 0000928  97.5238  99.1144  1.00271540  5086
GOES 17                 
1 43226U 18022A   19133.60494774  .00000084  00000-0  00000+0 0  9999
2 43226   0.0042 102.8552 0002463 302.1821 266.6095  1.00271321  4443
HISPASAT 30W-6          
1 43228U 18023A   19132.83814934 -.00000229  00000-0  00000+0 0  9992
2 43228   0.0470  56.2905 0006630 355.4529  90.2957  1.00271883  4508
SUPERBIRD 8             
1 43271U 18033A   19133.56093712 -.00000106  00000-0  00000+0 0  9999
2 43271   0.0410 115.6477 0001394 283.8722 195.4215  1.00271189  4060
HYLAS 4                 
1 43272U 18033B   19133.41173959 -.00000247  00000-0  00000+0 0  9992
2 43272   0.0614 114.7330 0002411  24.6682 206.2185  1.00270428  4097
IRNSS-1I                
1 43286U 18035A   19133.03157852  .00000121  00000-0  00000+0 0  9991
2 43286  29.1935 116.2423 0019344 191.2998 349.3395  1.00273441  4072
COSMOS 2526             
1 43432U 18037A   19131.39702403 -.00000354  00000-0  00000+0 0  9990
2 43432   0.0556  87.9591 0001734  25.8411  26.0493  1.00268220  3973
APSTAR 6C               
1 43450U 18041A   19133.57444997 -.00000332  00000-0  00000+0 0  9994
2 43450   0.0701 103.3902 0002495 285.1280 183.3248  1.00269220  3857
BANGABANDHUSAT-1        
1 43463U 18044A   19133.01144043 -.00000376  00000-0  00000+0 0  9997
2 43463   0.0135 290.5887 0002615 122.5045 300.6015  1.00266972  3745
SES-12                  
1 43488U 18049A   19133.08243872 -.00000283  00000-0  00000+0 0  9993
2 43488   0.0263  21.5739 0001517 167.4448 166.2159  1.00271428  3441
FENGYUN 2H              
1 43491U 18050A   19133.54563231 -.00000142  00000-0  00000+0 0  9998
2 43491   1.5908 282.3627 0002287 241.5431 342.5842  1.00273331  3523
BEIDOU IGSO-7           
1 43539U 18057A   19133.51364910 -.00000114  00000-0  00000+0 0  9997
2 43539  55.0346 185.9367 0023790 199.1762 142.8889  1.00288928  3162
TELSTAR 19V             
1 43562U 18059A   19133.43977291 -.00000294  00000-0  00000+0 0  9997
2 43562   0.0148 237.3556 0001146 231.7930 217.0756  1.00269900  3179
TELKOM 4 (MERAH PUTIH)  
1 43587U 18064A   19132.98492816 -.00000357  00000-0  00000+0 0  9994
2 43587   0.0180 262.0230 0001354 144.8023 286.2097  1.00270585  2866
TELSTAR 18V (APSTAR 5C) 
1 43611U 18069A   19133.51773118 -.00000308  00000-0  00000+0 0  9990
2 43611   0.0223  22.9036 0002876 348.4526 184.0009  1.00270656  2620
AZERSPACE 2 (IS-38)     
1 43632U 18074A   19133.16091088  .00000123  00000-0  00000+0 0  9993
2 43632   0.0174 277.8230 0001522 135.1479 280.7099  1.00270557  2511
HORIZONS 3E             
1 43633U 18074B   19133.57262712 -.00000045  00000-0  00000+0 0  9997
2 43633   0.0056  48.0315 0000241 169.4867  28.6549  1.00270066  2368
AEHF-4 (USA 288)        
1 43651U 18079A   19133.11245962 -.00000179  00000-0  00000+0 0  9998
2 43651   4.6682 311.8627 0003912  78.1022 146.9134  1.00272197  2290
BEIDOU-3 G1             
1 43683U 18085A   19132.94444325 -.00000260  00000-0  00000-0 0  9996
2 43683   2.6606 270.0590 0000881 121.5976 323.3271  1.00272122  2074
GSAT-29                 
1 43698U 18089A   19133.14220705  .00000071  00000-0  00000+0 0  9991
2 43698   0.0484 274.9577 0003798 119.8913 302.0067  1.00274730  1821
ES'HAIL 2               
1 43700U 18090A   19133.18104928  .00000131  00000-0  00000+0 0  9996
2 43700   0.0149 269.3064 0001981 173.6723 238.6270  1.00269727  1922
GEO-KOMPSAT-2A          
1 43823U 18100A   19132.96550657 -.00000357  00000-0  00000-0 0  9995
2 43823   0.0470 100.8847 0001919 324.0662 281.3213  1.00271247  1627
GSAT-11                 
1 43824U 18100B   19133.50499476 -.00000090  00000-0  00000+0 0  9991
2 43824   0.0271 263.4931 0006924 169.5395  53.7022  1.00271070  1648
GSAT-7A                 
1 43864U 18105A   19132.92839184  .00000012  00000-0  00000-0 0  9993
2 43864   0.0663 270.9095 0003432 120.1442 236.3699  1.00274080  1483
COSMOS 2533             
1 43867U 18107A   19133.50412240 -.00000051  00000-0  00000+0 0  9996
2 43867   0.0068 120.7712 0000914 357.1759   4.4323  1.00271045  1440
TJS-3                   
1 43874U 18110A   19133.67728979  .00000042  00000-0  00000+0 0  9994
2 43874   0.2148 109.4728 0001265 325.0872  99.4424  1.00274877  1497
TJS-3 AKM               
1 43917U 18110C   19133.67728979  .00000042  00000-0  00000+0 0  9992
2 43917   0.2168 108.8872 0001146 302.8186 122.3750  1.00274459  1370
CHINASAT 2D (ZX 2D)     
1 43920U 19001A   19131.57549178 -.00000346  00000-0  00000+0 0  9993
2 43920   0.0587 111.5576 0002480 283.7251 170.9693  1.00274945  1354
GSAT-31                 
1 44035U 19007B   19132.92542581  .00000112  00000-0  00000-0 0  9999
2 44035   0.0601  92.9314 0002485 264.4093 254.0804  1.00271750   983
NUSANTARA SATU          
1 44048U 19009A   19133.51930144 -.00000248  00000-0  00000+0 0  9997
2 44048   0.0068  97.5518 0003481 335.2668 131.0810  1.00275069   789
WGS 10 (USA 291)        
1 44071U 19014A   19131.44590059 -.00000046  00000-0  00000+0 0  9992
2 44071   0.1169 276.9845 0945881 275.2777  74.7841  1.00475607   627
ARABSAT 6A              
1 44186U 19021A   19133.20118920  .00000140  00000-0  00000+0 0  9990
2 44186   0.0310  22.2051 0002992  41.1779 270.2068  1.00270287   240
BEIDOU-3 IGSO-1         
1 44204U 19023A   19132.82700600 -.00000215  00000-0  10000-3 0  9991
2 44204  54.9334  65.3746 0015941 183.8943  30.2466  1.00299241   369
